{"type": "FeatureCollection", "features": [ {"type": "Feature", "properties": {"norad_id": 45358, "name": "COSMOS 2545 (760)", "group": "glo-ops", "lat": 1.1100958809457369, "lon": 138.5441620924888, "alt_km": 19119.853641634043, "timestamp": "2025-12-09T09:46:47.906459+00:00", "meta": {"OBJECT_NAME": "COSMOS 2545 (760)", "OBJECT_ID": "2020-018A", "EPOCH": "2025-12-08T16:55:08.218272", "MEAN_MOTION": 2.13102249, "ECCENTRICITY": 0.00119292, "INCLINATION": 64.4721, "RA_OF_ASC_NODE": 319.1115, "ARG_OF_PERICENTER": 248.7134, "MEAN_ANOMALY": 111.1544, "EPHEMERIS_TYPE": 0, "CLASSIFICATION_TYPE": "U", "NORAD_CAT_ID": 45358, "ELEMENT_SET_NO": 999, "REV_AT_EPOCH": 4460, "BSTAR": 0, "MEAN_MOTION_DOT": -5e-07, "MEAN_MOTION_DDOT": 0}, "tle": {"line1": "1 45358U 20018A   25342.70495623 -.00000050  00000+0  00000+0 0  9992", "line2": "2 45358  64.4721 319.1115 0011929 248.7134 111.1544  2.13102249 44608"}}, "geometry": {"type": "Point", "coordinates": [138.5441620924888, 1.1100958809457369]}}, {"type": "Feature", "properties": {"norad_id": 46805, "name": "COSMOS 2547 (705K)", "group": "glo-ops", "lat": 30.910676520378587, "lon": -144.65620082365487, "alt_km": 19141.929084503223, "timestamp": "2025-12-09T09:46:47.906471+00:00", "meta": {"OBJECT_NAME": "COSMOS 2547 (705K)", "OBJECT_ID": "2020-075A", "EPOCH": "2025-12-07T22:54:27.999936", "MEAN_MOTION": 2.13099949, "ECCENTRICITY": 0.00062185, "INCLINATION": 64.596, "RA_OF_ASC_NODE": 198.8564, "ARG_OF_PERICENTER": 228.8188, "MEAN_ANOMALY": 131.2072, "EPHEMERIS_TYPE": 0, "CLASSIFICATION_TYPE": "U", "NORAD_CAT_ID": 46805, "ELEMENT_SET_NO": 999, "REV_AT_EPOCH": 3983, "BSTAR": 0, "MEAN_MOTION_DOT": 5.3e-07, "MEAN_MOTION_DDOT": 0}, "tle": {"line1": "1 46805U 20075A   25341.95449074  .00000053  00000+0  00000+0 0  9990", "line2": "2 46805  64.5960 198.8564 0006218 228.8188 131.2072  2.13099949 39835"}}, "geometry": {"type": "Point", "coordinates": [-144.65620082365487, 30.910676520378587]}}, {"type": "Feature", "properties": {"norad_id": 52984, "name": "COSMOS 2557 (706K)", "group": "glo-ops", "lat": -64.30994415476275, "lon": -134.06077211369566, "alt_km": 19101.938534726964, "timestamp": "2025-12-09T09:46:47.906483+00:00", "meta": {"OBJECT_NAME": "COSMOS 2557 (706K)", "OBJECT_ID": "2022-075A", "EPOCH": "2025-12-07T04:21:00.419904", "MEAN_MOTION": 2.13101754, "ECCENTRICITY": 0.00137049, "INCLINATION": 64.4129, "RA_OF_ASC_NODE": 321.247, "ARG_OF_PERICENTER": 276.9, "MEAN_ANOMALY": 82.939, "EPHEMERIS_TYPE": 0, "CLASSIFICATION_TYPE": "U", "NORAD_CAT_ID": 52984, "ELEMENT_SET_NO": 999, "REV_AT_EPOCH": 2662, "BSTAR": 0, "MEAN_MOTION_DOT": -5.2e-07, "MEAN_MOTION_DDOT": 0}, "tle": {"line1": "1 52984U 22075A   25341.18125486 -.00000052  00000+0  00000+0 0  9990", "line2": "2 52984  64.4129 321.2470 0013704 276.9000  82.9390  2.13101754 26625"}}, "geometry": {"type": "Point", "coordinates": [-134.06077211369566, -64.30994415476275]}}, {"type": "Feature", "properties": {"norad_id": 54031, "name": "COSMOS 2559 (707K)", "group": "glo-ops", "lat": 40.86520014333932, "lon": -14.235523150215602, "alt_km": 19150.360602563207, "timestamp": "2025-12-09T09:46:47.906495+00:00", "meta": {"OBJECT_NAME": "COSMOS 2559 (707K)", "OBJECT_ID": "2022-130A", "EPOCH": "2025-12-08T21:03:33.189408", "MEAN_MOTION": 2.13101268, "ECCENTRICITY": 0.00119077, "INCLINATION": 64.3845, "RA_OF_ASC_NODE": 321.277, "ARG_OF_PERICENTER": 192.5863, "MEAN_ANOMALY": 167.3811, "EPHEMERIS_TYPE": 0, "CLASSIFICATION_TYPE": "U", "NORAD_CAT_ID": 54031, "ELEMENT_SET_NO": 999, "REV_AT_EPOCH": 2463, "BSTAR": 0, "MEAN_MOTION_DOT": -5.1e-07, "MEAN_MOTION_DDOT": 0}, "tle": {"line1": "1 54031U 22130A   25342.87746747 -.00000051  00000+0  00000+0 0  9992", "line2": "2 54031  64.3845 321.2770 0011907 192.5863 167.3811  2.13101268 24635"}}, "geometry": {"type": "Point", "coordinates": [-14.235523150215602, 40.86520014333932]}}, {"type": "Feature", "properties": {"norad_id": 54377, "name": "COSMOS 2564 (761)", "group": "glo-ops", "lat": 12.567675605727, "lon": 12.970478463311416, "alt_km": 19111.72067926348, "timestamp": "2025-12-09T09:46:47.906506+00:00", "meta": {"OBJECT_NAME": "COSMOS 2564 (761)", "OBJECT_ID": "2022-161A", "EPOCH": "2025-12-06T20:16:19.958016", "MEAN_MOTION": 2.13101987, "ECCENTRICITY": 0.0008674, "INCLINATION": 64.7378, "RA_OF_ASC_NODE": 199.0949, "ARG_OF_PERICENTER": 205.6872, "MEAN_ANOMALY": 154.3558, "EPHEMERIS_TYPE": 0, "CLASSIFICATION_TYPE": "U", "NORAD_CAT_ID": 54377, "ELEMENT_SET_NO": 999, "REV_AT_EPOCH": 2353, "BSTAR": 0, "MEAN_MOTION_DOT": 6.7e-07, "MEAN_MOTION_DDOT": 0}, "tle": {"line1": "1 54377U 22161A   25340.84467544  .00000067  00000+0  00000+0 0  9995", "line2": "2 54377  64.7378 199.0949 0008674 205.6872 154.3558  2.13101987 23535"}}, "geometry": {"type": "Point", "coordinates": [12.970478463311416, 12.567675605727]}}, {"type": "Feature", "properties": {"norad_id": 57517, "name": "COSMOS 2569 (703K)", "group": "glo-ops", "lat": 21.9406372934052, "lon": -111.68826933875808, "alt_km": 19144.795240800566, "timestamp": "2025-12-09T09:46:47.906518+00:00", "meta": {"OBJECT_NAME": "COSMOS 2569 (703K)", "OBJECT_ID": "2023-114A", "EPOCH": "2025-12-07T19:07:05.045952", "MEAN_MOTION": 2.13103857, "ECCENTRICITY": 0.00103488, "INCLINATION": 65.1916, "RA_OF_ASC_NODE": 79.0806, "ARG_OF_PERICENTER": 287.0317, "MEAN_ANOMALY": 72.8691, "EPHEMERIS_TYPE": 0, "CLASSIFICATION_TYPE": "U", "NORAD_CAT_ID": 57517, "ELEMENT_SET_NO": 999, "REV_AT_EPOCH": 1818, "BSTAR": 0, "MEAN_MOTION_DOT": -1.2e-07, "MEAN_MOTION_DDOT": 0}, "tle": {"line1": "1 57517U 23114A   25341.79658618 -.00000012  00000+0  00000+0 0  9993", "line2": "2 57517  65.1916  79.0806 0010348 287.0317  72.8691  2.13103857 18180"}}, "geometry": {"type": "Point", "coordinates": [-111.68826933875808, 21.9406372934052]}}, {"type": "Feature", "properties": {"norad_id": 63130, "name": "COSMOS 2584 (704K)", "group": "glo-ops", "lat": -53.771442099475976, "lon": -61.19308421689886, "alt_km": 19118.54975224547, "timestamp": "2025-12-09T09:46:47.906529+00:00", "meta": {"OBJECT_NAME": "COSMOS 2584 (704K)", "OBJECT_ID": "2025-042A", "EPOCH": "2025-12-08T03:39:29.178720", "MEAN_MOTION": 2.13102925, "ECCENTRICITY": 0.0007602, "INCLINATION": 64.9737, "RA_OF_ASC_NODE": 79.3022, "ARG_OF_PERICENTER": 215.9611, "MEAN_ANOMALY": 144.0025, "EPHEMERIS_TYPE": 0, "CLASSIFICATION_TYPE": "U", "NORAD_CAT_ID": 63130, "ELEMENT_SET_NO": 999, "REV_AT_EPOCH": 597, "BSTAR": 0, "MEAN_MOTION_DOT": -1.2e-07, "MEAN_MOTION_DDOT": 0}, "tle": {"line1": "1 63130U 25042A   25342.15242105 -.00000012  00000+0  00000+0 0  9994", "line2": "2 63130  64.9737  79.3022 0007602 215.9611 144.0025  2.13102925  5976"}}, "geometry": {"type": "Point", "coordinates": [-61.19308421689886, -53.771442099475976]}}, {"type": "Feature", "properties": {"norad_id": 65590, "name": "COSMOS 2596 (708K)", "group": "glo-ops", "lat": 1.3379323418154818, "lon": -37.79067631718915, "alt_km": 19110.49631477349, "timestamp": "2025-12-09T09:46:47.906541+00:00", "meta": {"OBJECT_NAME": "COSMOS 2596 (708K)", "OBJECT_ID": "2025-206B", "EPOCH": "2025-12-09T01:32:49.274880", "MEAN_MOTION": 2.13100277, "ECCENTRICITY": 0.0013986, "INCLINATION": 64.7463, "RA_OF_ASC_NODE": 321.6012, "ARG_OF_PERICENTER": 305.3711, "MEAN_ANOMALY": 152.8075, "EPHEMERIS_TYPE": 0, "CLASSIFICATION_TYPE": "U", "NORAD_CAT_ID": 65590, "ELEMENT_SET_NO": 999, "REV_AT_EPOCH": 186, "BSTAR": 0, "MEAN_MOTION_DOT": -5.1e-07, "MEAN_MOTION_DDOT": 0}, "tle": {"line1": "1 65590U 25206B   25343.06445920 -.00000051  00000+0  00000+0 0  9992", "line2": "2 65590  64.7463 321.6012 0013986 305.3711 152.8075  2.13100277  1865"}}, "geometry": {"type": "Point", "coordinates": [-37.79067631718915, 1.3379323418154818]}}]}